NORAD_CAT_ID,OBJECT_NAME,OBJECT_TYPE,EPOCH,MEAN_MOTION,ECCENTRICITY,INCLINATION,RA_OF_ASC_NODE,ARG_OF_PERICENTER,MEAN_ANOMALY,BSTAR,MEAN_MOTION_DOT,MEAN_MOTION_DDOT,TLE_LINE0,TLE_LINE1,TLE_LINE2,SEMIMAJOR_AXIS,PERIOD,APOGEE,PERIGEE,DECAYED
51735.0,STARLINK-3517,PAYLOAD,2023-08-23 01:06:42,15.08837775,0.0001573,53.2175,172.4501,110.3752,249.741,-3.4781e-05,-8.41e-06,0.0,0 STARLINK-3517,1 51735U 22016X   23235.04632159 -.00000841  00000-0 -34781-4 0  9999,2 51735  53.2175 172.4501 0001573 110.3752 249.7410 15.08837775 84337,6917.887,95.438,540.84,538.664,0.0
51735.0,STARLINK-3517,PAYLOAD,2023-08-24 20:02:07,15.08835274,0.0001427,53.2179,164.4223,103.2348,256.8803,3.3349e-05,2.43e-06,0.0,0 STARLINK-3517,1 51735U 22016X   23236.83480455  .00000243  00000-0  33349-4 0  9990,2 51735  53.2179 164.4223 0001427 103.2348 256.8803 15.08835274 83496,6917.895,95.438,540.747,538.773,0.0
51735.0,STARLINK-3517,PAYLOAD,2023-08-25 05:34:25,15.08838997,0.0001256,53.2174,162.6404,93.7741,266.3395,4.6895e-05,4.59e-06,0.0,0 STARLINK-3517,1 51735U 22016X   23237.23224306  .00000459  00000-0  46895-4 0  9995,2 51735  53.2174 162.6404 0001256  93.7741 266.3395 15.08838997 83556,6917.883,95.438,540.617,538.88,0.0
51735.0,STARLINK-3517,PAYLOAD,2023-08-26 00:39:03,15.0884059,0.0001263,53.2174,159.0721,88.9029,271.2107,-4.3473e-05,-9.8e-06,0.0,0 STARLINK-3517,1 51735U 22016X   23238.02712759 -.00000980  00000-0 -43473-4 0  9997,2 51735  53.2174 159.0721 0001263  88.9029 271.2107 15.08840590 84785,6917.879,95.438,540.617,538.87,0.0
51735.0,STARLINK-3517,PAYLOAD,2023-08-26 03:49:49,15.08843338,0.0001332,53.2177,158.4768,94.9447,265.1697,1.7302e-05,-1.3e-07,0.0,0 STARLINK-3517,1 51735U 22016X   23238.15960367 -.00000013  00000-0  17302-4 0  9999,2 51735  53.2177 158.4768 0001332  94.9447 265.1697 15.08843338 83698,6917.87,95.437,540.657,538.814,0.0
51735.0,STARLINK-3517,PAYLOAD,2023-08-27 03:40:36,15.08843935,0.0001321,53.2167,154.0178,87.1796,272.9347,6.4832e-05,7.44e-06,0.0,0 STARLINK-3517,1 51735U 22016X   23239.15320303  .00000744  00000-0  64832-4 0  9990,2 51735  53.2167 154.0178 0001321  87.1796 272.9347 15.08843935 84954,6917.868,95.437,540.647,538.82,0.0
51735.0,STARLINK-3517,PAYLOAD,2023-08-27 05:15:59,15.08844722,0.0001312,53.2169,153.7202,87.4808,272.6334,6.6746e-05,7.75e-06,0.0,0 STARLINK-3517,1 51735U 22016X   23239.21944218  .00000775  00000-0  66746-4 0  9994,2 51735  53.2169 153.7202 0001312  87.4808 272.6334 15.08844722 83853,6917.866,95.437,540.639,538.823,0.0
51735.0,STARLINK-3517,PAYLOAD,2023-08-28 00:20:37,15.08842351,0.0001514,53.2176,150.1518,79.3764,280.7399,2.5093e-06,-2.48e-06,0.0,0 STARLINK-3517,1 51735U 22016X   23240.01432813 -.00000248  00000-0  25093-5 0  9994,2 51735  53.2176 150.1518 0001514  79.3764 280.7399 15.08842351 85081,6917.873,95.437,540.786,538.691,0.0
51735.0,STARLINK-3517,PAYLOAD,2023-08-28 11:28:19,15.08841169,0.0001476,53.2178,148.0697,85.8498,274.2663,2.3625e-05,8.8e-07,0.0,0 STARLINK-3517,1 51735U 22016X   23240.47800659  .00000088  00000-0  23625-4 0  9990,2 51735  53.2178 148.0697 0001476  85.8498 274.2663 15.08841169 84043,6917.877,95.437,540.763,538.721,0.0
51735.0,STARLINK-3517,PAYLOAD,2023-08-29 03:22:10,15.08843876,0.000148,53.2174,145.0949,107.6721,252.4433,9.9361e-06,-1.3e-06,0.0,0 STARLINK-3517,1 51735U 22016X   23241.14040506 -.00000130  00000-0  99361-5 0  9992,2 51735  53.2174 145.0949 0001480 107.6721 252.4433 15.08843876 85257,6917.869,95.437,540.757,538.71,0.0
51735.0,STARLINK-3517,PAYLOAD,2023-08-29 11:19:06,15.08842318,0.0001598,53.2183,143.6068,95.7216,264.3958,-2.7329e-05,-7.23e-06,0.0,0 STARLINK-3517,1 51735U 22016X   23241.47160665 -.00000723  00000-0 -27329-4 0  9990,2 51735  53.2183 143.6068 0001598  95.7216 264.3958 15.08842318 84195,6917.873,95.437,540.844,538.633,0.0
51735.0,STARLINK-3517,PAYLOAD,2023-08-30 03:12:58,15.08842671,0.0001522,53.2178,140.6344,104.2737,255.8424,-2.9455e-05,-7.57e-06,0.0,0 STARLINK-3517,1 51735U 22016X   23242.13400832 -.00000757  00000-0 -29455-4 0  9996,2 51735  53.2178 140.6344 0001522 104.2737 255.8424 15.08842671 85404,6917.872,95.437,540.79,538.684,0.0
51735.0,STARLINK-3517,PAYLOAD,2023-08-31 03:03:45,15.08838712,0.0001447,53.2168,136.1755,88.324,271.7918,1.4063e-05,-6.4e-07,0.0,0 STARLINK-3517,1 51735U 22016X   23243.12761154 -.00000064  00000-0  14063-4 0  9992,2 51735  53.2168 136.1755 0001447  88.3240 271.7918 15.08838712 84445,6917.884,95.438,540.75,538.748,0.0
51735.0,STARLINK-3517,PAYLOAD,2023-09-01 01:19:09,15.08840944,0.0001408,53.2169,132.0131,90.0413,270.0741,1.9236e-05,1.8e-07,0.0,0 STARLINK-3517,1 51735U 22016X   23244.05497106  .00000018  00000-0  19236-4 0  9993,2 51735  53.2169 132.0131 0001408  90.0413 270.0741 15.08840944 85692,6917.878,95.437,540.717,538.768,0.0
51735.0,STARLINK-3517,PAYLOAD,2023-09-01 09:16:05,15.0884149,0.0001402,53.2169,130.5264,89.8429,270.2724,2.8825e-05,1.71e-06,0.0,0 STARLINK-3517,1 51735U 22016X   23244.38617047  .00000171  00000-0  28825-4 0  9991,2 51735  53.2169 130.5264 0001402  89.8429 270.2724 15.08841490 84632,6917.876,95.437,540.711,538.771,0.0
51735.0,STARLINK-3517,PAYLOAD,2023-09-02 02:45:19,15.08838427,0.0001494,53.2168,127.2551,88.0802,272.0361,3.3888e-05,2.51e-06,0.0,0 STARLINK-3517,1 51735U 22016X   23245.11481314  .00000251  00000-0  33888-4 0  9993,2 51735  53.2168 127.2551 0001494  88.0802 272.0361 15.08838427 85858,6917.885,95.438,540.784,538.717,0.0
51735.0,STARLINK-3517,PAYLOAD,2023-09-02 09:06:52,15.08834576,0.0001449,53.2157,126.0654,88.8043,271.3115,-4.0953e-06,-3.53e-06,0.0,0 STARLINK-3517,1 51735U 22016X   23245.37977738 -.00000353  00000-0 -40953-5 0  9998,2 51735  53.2157 126.0654 0001449  88.8043 271.3115 15.08834576 84783,6917.897,95.438,540.764,538.76,0.0
51735.0,STARLINK-3517,PAYLOAD,2023-09-03 08:57:39,15.08837237,0.0001687,53.2184,121.6043,86.3117,273.8068,6.0163e-06,-1.92e-06,0.0,0 STARLINK-3517,1 51735U 22016X   23246.37337774 -.00000192  00000-0  60163-5 0  9994,2 51735  53.2184 121.6043 0001687  86.3117 273.8068 15.08837237 86047,6917.889,95.438,540.921,538.587,0.0
51735.0,STARLINK-3517,PAYLOAD,2023-09-04 08:48:27,15.08833361,0.0001391,53.2167,117.144,89.8275,270.2876,5.2854e-05,5.53e-06,0.0,0 STARLINK-3517,1 51735U 22016X   23247.36698069  .00000553  00000-0  52854-4 0  9998,2 51735  53.2167 117.1440 0001391  89.8275 270.2876 15.08833361 85089,6917.901,95.438,540.728,538.803,0.0
51735.0,STARLINK-3517,PAYLOAD,2023-09-05 00:42:18,15.08840419,0.0001267,53.2166,114.1701,92.3247,267.789,-4.5406e-06,-3.6e-06,0.0,0 STARLINK-3517,1 51735U 22016X   23248.02937967 -.00000360  00000-0 -45406-5 0  9999,2 51735  53.2166 114.1701 0001267  92.3247 267.7890 15.08840419 86298,6917.879,95.438,540.621,538.868,0.0
51735.0,STARLINK-3517,PAYLOAD,2023-09-06 00:33:04,15.08847352,0.0001279,53.2172,109.7096,90.2827,269.8311,0.00010066,1.315e-05,0.0,0 STARLINK-3517,1 51735U 22016X   23249.02297026  .00001315  00000-0  10066-3 0  9996,2 51735  53.2172 109.7096 0001279  90.2827 269.8311 15.08847352 86447,6917.858,95.437,540.608,538.838,0.0
51735.0,STARLINK-3517,PAYLOAD,2023-09-07 00:23:51,15.08844333,0.0001229,53.2177,105.2501,82.1479,277.9653,1.711e-05,-1.6e-07,0.0,0 STARLINK-3517,1 51735U 22016X   23250.01657364 -.00000016  00000-0  17110-4 0  9998,2 51735  53.2177 105.2501 0001229  82.1479 277.9653 15.08844333 86593,6917.867,95.437,540.582,538.882,0.0
51735.0,STARLINK-3517,PAYLOAD,2023-09-07 14:42:20,15.08840329,0.0001508,53.2166,102.5701,103.7016,256.4144,-2.5542e-05,-6.94e-06,0.0,0 STARLINK-3517,1 51735U 22016X   23250.61273659 -.00000694  00000-0 -25542-4 0  9996,2 51735  53.2166 102.5701 0001508 103.7016 256.4144 15.08840329 85575,6917.879,95.438,540.788,538.701,0.0
51735.0,STARLINK-3517,PAYLOAD,2023-09-08 00:14:39,15.08838243,0.000143,53.2169,100.7873,99.4953,260.6201,-4.9185e-05,-1.071e-05,0.0,0 STARLINK-3517,1 51735U 22016X   23251.01017913 -.00001071  00000-0 -49185-4 0  9999,2 51735  53.2169 100.7873 0001430  99.4953 260.6201 15.08838243 86746,6917.886,95.438,540.74,538.762,0.0
51735.0,STARLINK-3517,PAYLOAD,2023-09-08 20:54:40,15.08832475,0.0001228,53.2168,96.9236,84.6319,275.4813,5.011e-05,5.1e-06,0.0,0 STARLINK-3517,1 51735U 22016X   23251.87130144  .00000510  00000-0  50110-4 0  9990,2 51735  53.2168  96.9236 0001228  84.6319 275.4813 15.08832475 85766,6917.903,95.438,540.618,538.919,0.0
51735.0,STARLINK-3517,PAYLOAD,2023-09-09 06:26:59,15.08836084,0.0001284,53.2173,95.1392,86.9019,273.212,6.9908e-05,8.25e-06,0.0,0 STARLINK-3517,1 51735U 22016X   23252.26873995  .00000825  00000-0  69908-4 0  9996,2 51735  53.2173  95.1392 0001284  86.9019 273.2120 15.08836084 86937,6917.892,95.438,540.646,538.869,0.0
51735.0,STARLINK-3517,PAYLOAD,2023-09-09 23:56:13,15.08843578,0.0001317,53.2174,91.8687,87.076,273.0383,0.00012125,1.642e-05,0.0,0 STARLINK-3517,1 51735U 22016X   23252.99737558  .00001642  00000-0  12125-3 0  9996,2 51735  53.2174  91.8687 0001317  87.0760 273.0383 15.08843578 87048,6917.869,95.437,540.646,538.823,0.0
51735.0,STARLINK-3517,PAYLOAD,2023-09-10 19:00:51,15.08836962,0.0001319,53.2178,88.3008,86.8767,273.2376,3.1981e-05,2.21e-06,0.0,0 STARLINK-3517,1 51735U 22016X   23253.79226463  .00000221  00000-0  31981-4 0  9997,2 51735  53.2178  88.3008 0001319  86.8767 273.2376 15.08836962 87162,6917.89,95.438,540.667,538.842,0.0
51735.0,STARLINK-3517,PAYLOAD,2023-09-10 23:47:00,15.08843576,0.0001315,53.2179,87.4087,88.3489,271.7653,8.4963e-05,1.065e-05,0.0,0 STARLINK-3517,1 51735U 22016X   23253.99097881  .00001065  00000-0  84963-4 0  9994,2 51735  53.2179  87.4087 0001315  88.3489 271.7653 15.08843576 87197,6917.869,95.437,540.644,538.825,0.0
51735.0,STARLINK-3517,PAYLOAD,2023-09-11 06:08:33,15.08834591,0.0001408,53.2175,86.2192,85.8726,274.2427,-6.1539e-06,-3.86e-06,0.0,0 STARLINK-3517,1 51735U 22016X   23254.25594787 -.00000386  00000-0 -61539-5 0  9993,2 51735  53.2175  86.2192 0001408  85.8726 274.2427 15.08834591 87235,6917.897,95.438,540.736,538.788,0.0
